COSMOS 1933             
1 18958U 88020A   25357.17378209  .00004478  00000+0  22387-3 0  9995
2 18958  82.5141 326.5681 0006243 100.5284 259.6653 15.17192079 38627
SL-3 R/B                
1 19046U 88032B   25357.07353222  .00005364  00000+0  25831-3 0  9996
2 19046  97.5092 335.7229 0027781 137.8317 222.5062 15.18839290 40470
SL-16 R/B               
1 19120U 88039B   25357.10514637  .00000108  00000+0  73902-4 0  9993
2 19120  71.0132 230.4822 0019540  98.5360 261.7981 14.19599227947519
COSMOS 1953             
1 19210U 88050A   25351.75027580  .00004793  00000+0  17925-3 0  9993
2 19210  82.5093 240.5536 0013540  56.0210 304.2313 15.26995692 25270
SL-8 R/B                
1 19257U 88053B   25357.04681853  .00000267  00000+0  94980-4 0  9993
2 19257  74.0471 253.7240 0018944  93.9647   8.5041 14.38865293965575
COSMOS 1975             
1 19573U 88093A   25357.00662046  .00006867  00000+0  26044-3 0  9994
2 19573  82.5189 194.5495 0013023  80.5046 279.7664 15.26604993  7709
SL-14 R/B               
1 19574U 88093B   25357.10159352  .00000547  00000+0  60305-4 0  9995
2 19574  82.5314 113.9437 0019294 293.2054 239.7035 14.85559837989661
SL-16 R/B               
1 19650U 88102B   25357.12444061  .00000220  00000+0  13531-3 0  9993
2 19650  71.0005 312.5923 0012457 134.0654 226.1497 14.16141299916053
INTERCOSMOS 24          
1 20261U 89080A   25356.99270678  .00000708  00000+0  19922-3 0  9995
2 20261  82.6052 154.2869 1188992 110.7458 262.4994 12.59456065657147
SL-14 R/B               
1 20262U 89080C   25357.06496659  .00000348  00000+0  10119-3 0  9993
2 20262  82.5917 222.3925 1230479 359.9940   0.0944 12.50421487650570
DELTA 1 R/B             
1 20323U 89089B   25357.05563015  .00000345  00000+0  94181-4 0  9999
2 20323  97.0743 211.6578 0069306   6.0268 354.1748 14.50580234884620
ARIANE 40 R/B           
1 20443U 90005H   25357.16337027  .00000285  00000+0  10437-3 0  9990
2 20443  98.3228  55.0462 0011220  77.5770 282.6674 14.39805938881796
